STARLINK-5408           
1 54810U 22175BE  24104.70496893  .00000703  00000+0  62248-4 0  9997
2 54810  53.2160 263.7995 0001742  87.3575 272.7616 15.08841222 75283
STARLINK-5424           
1 54811U 22175BF  24105.46036447  .00000470  00000+0  47636-4 0  9992
2 54811  53.2188 260.6810 0001476  65.9519 294.1628 15.08834261 73239
STARLINK-5382           
1 54820U 22177A   24105.00604817  .00003094  00000+0  24396-3 0  9998
2 54820  43.0031 308.3281 0001303 271.2966  88.7727 15.02549191 71472
STARLINK-5385           
1 54821U 22177B   24104.99383767  .00000412  00000+0  45579-4 0  9992
2 54821  43.0044 308.2401 0001221 273.1224  86.9479 15.02551689 71476
STARLINK-5101           
1 54822U 22177C   24104.85646701  .00017956  00000+0  13420-2 0  9997
2 54822  43.0030 308.9243 0001437 243.2464 116.8232 15.02503841 71451
STARLINK-5106           
1 54823U 22177D   24104.86978141  .00012951  00000+0  97319-3 0  9995
2 54823  43.0036 309.0249 0000856 265.1179  94.9565 15.02491277 71450
STARLINK-4643           
1 54824U 22177E   24104.99939270  .00001867  00000+0  15320-3 0  9996
2 54824  43.0039 308.2772 0001317 264.7415  95.3278 15.02540283 71477
STARLINK-4801           
1 54825U 22177F   24104.85978391  .00000596  00000+0  59155-4 0  9992
2 54825  43.0041 308.9443 0001153 276.3803  83.6908 15.02545323 72438
STARLINK-5107           
1 54826U 22177G   24104.99051979 -.00000438  00000+0 -17378-4 0  9990
2 54826  43.0041 308.2104 0001331 265.1322  94.9368 15.02536013 71470
STARLINK-5383           
1 54827U 22177H   24104.98274045  .00000500  00000+0  52108-4 0  9999
2 54827  43.0035 308.1521 0001421 266.2939  93.7741 15.02544894 71470
STARLINK-5381           
1 54828U 22177J   24104.97941739  .00000028  00000+0  17119-4 0  9998
2 54828  43.0034 308.1276 0001470 259.0338 101.0339 15.02539636 71478
STARLINK-5380           
1 54829U 22177K   24104.99606316 -.00000047  00000+0  11591-4 0  9990
2 54829  43.0041 308.2533 0001115 268.0485  92.0230 15.02545375 71479
STARLINK-5394           
1 54830U 22177L   24104.90738574  .00000651  00000+0  63267-4 0  9992
2 54830  43.0038 308.4467 0001250 263.0872  96.9829 15.02542854 71465
STARLINK-5395           
1 54831U 22177M   24104.98607435  .00001495  00000+0  12568-3 0  9996
2 54831  43.0032 308.1804 0001376 283.2703  76.7985 15.02543192 71474
STARLINK-5393           
1 54832U 22177N   24105.01630540  .00001468  00000+0  12377-3 0  9993
2 54832  43.0035 295.4061 0001475 254.4172 105.6507 15.02528153 71620
STARLINK-5391           
1 54833U 22177P   24104.98052121  .00001695  00000+0  14052-3 0  9996
2 54833  43.0044 308.1332 0001405 262.9841  97.0842 15.02535729 71470
STARLINK-5386           
1 54834U 22177Q   24104.97276168 -.00001000  00000+0 -58972-4 0  9997
2 54834  43.0041 308.0755 0001382 253.2682 106.8009 15.02527522 71472
STARLINK-5389           
1 54835U 22177R   24104.97719656  .00001271  00000+0  10914-3 0  9993
2 54835  43.0035 308.1108 0001321 242.6252 117.4456 15.02542624 71471
STARLINK-5384           
1 54836U 22177S   24104.96942800 -.00002849  00000+0 -19584-3 0  9998
2 54836  43.0035 308.0506 0002041 251.5666 108.4954 15.02539638 71475
STARLINK-5369           
1 54837U 22177T   24104.97053429  .00004797  00000+0  36985-3 0  9996
2 54837  43.0045 308.0627 0001443 263.4670  96.6008 15.02541838 71476
STARLINK-5372           
1 54838U 22177U   24105.02923380  .00001503  00000+0  12627-3 0  9995
2 54838  43.0041 307.6400 0001215 269.1689  90.9014 15.02549870 71486
STARLINK-5110           
1 54839U 22177V   24105.02258095  .00009362  00000+0  70694-3 0  9999
2 54839  43.0030 307.5890 0001247 269.7842  90.2857 15.02550282 71486
STARLINK-5368           
1 54840U 22177W   24104.82092940  .00001637  00000+0  13622-3 0  9998
2 54840  43.0042 308.6564 0001236 271.1605  88.9096 15.02542934 72433
STARLINK-4659           
1 54841U 22177X   24104.83314702  .00000456  00000+0  48803-4 0  9991
2 54841  43.0023 308.7485 0001525 289.2284  70.8393 15.02533150 72430
STARLINK-5387           
1 54842U 22177Y   24105.01370129 -.00000778  00000+0 -42534-4 0  9992
2 54842  43.0044 307.5233 0001301 268.1065  91.9628 15.02533701 71488
STARLINK-5304           
1 54843U 22177Z   24104.82647954 -.00000480  00000+0 -20484-4 0  9994
2 54843  43.0026 308.6990 0001278 267.7973  92.2723 15.02541277 72430
STARLINK-5388           
1 54844U 22177AA  24104.80983524  .00000307  00000+0  37790-4 0  9993
2 54844  43.0041 308.5532 0001576 274.6393  85.4269 15.02530559 72433
STARLINK-5082           
1 54845U 22177AB  24104.81760070  .00001117  00000+0  97701-4 0  9992
2 54845  43.0034 308.6304 0001241 260.7983  99.2719 15.02540741 72431
STARLINK-5360           
1 54846U 22177AC  24104.81094277 -.00001063  00000+0 -63603-4 0  9998
2 54846  43.0026 308.5794 0001246 261.3801  98.6900 15.02534588 72433
STARLINK-5061           
1 54847U 22177AD  24104.83809690  .00000332  00000+0  39665-4 0  9991
2 54847  43.0035 282.7708 0001517 262.6367  97.4303 15.02535213 72737
STARLINK-5432           
1 54848U 22177AE  24104.81131880 -.00000131  00000+0  53511-5 0  9994
2 54848  43.0031 296.4334 0001653 256.8079 103.2579 15.02532612 72570
STARLINK-5434           
1 54849U 22177AF  24104.87409155  .00000134  00000+0  24974-4 0  9996
2 54849  43.0031 308.1874 0001149 263.7786  96.2925 15.02534999 71466
STARLINK-5087           
1 54850U 22177AG  24104.87334841  .00001089  00000+0  95685-4 0  9994
2 54850  43.0033 296.0380 0001355 265.6372  94.4315 15.02545016 71609
STARLINK-5084           
1 54851U 22177AH  24104.81022218 -.00002422  00000+0 -16430-3 0  9995
2 54851  43.0074 296.4288 0001534 262.6692  97.3976 15.02535779 72574
STARLINK-5418           
1 54852U 22177AJ  24104.99966624  .00001282  00000+0  10998-3 0  9997
2 54852  43.0036 295.2654 0001157 307.5649  52.5088 15.02535339 71623
STARLINK-5427           
1 54853U 22177AK  24104.80355228 -.00000508  00000+0 -22509-4 0  9994
2 54853  43.0040 296.3752 0001264 264.7956  95.2742 15.02531868 72573
STARLINK-5419           
1 54854U 22177AL  24104.86114035  .00002731  00000+0  21713-3 0  9993
2 54854  43.0030 295.9454 0001560 274.1400  85.9264 15.02547187 72582
STARLINK-5416           
1 54855U 22177AM  24104.79689647  .00007312  00000+0  55569-3 0  9998
2 54855  43.0031 296.3246 0001332 278.1830  81.8861 15.02542152 72570
STARLINK-5086           
1 54856U 22177AN  24104.84339368  .00000016  00000+0  16254-4 0  9990
2 54856  43.0042 295.8123 0000932 286.2108  73.8632 15.02533137 72585
STARLINK-5078           
1 54857U 22177AP  24105.51923192  .00005015  00000+0  38573-3 0  9991
2 54857  43.0048 292.2920 0001610 286.7850  73.2816 15.02565512 71704
STARLINK-5407           
1 54858U 22177AQ  24104.85670241  .00001429  00000+0  12078-3 0  9999
2 54858  43.0028 295.9112 0001310 272.4939  87.5753 15.02544502 72584
STARLINK-5409           
1 54859U 22177AR  24104.97966625 -.00006326  00000+0 -45329-3 0  9995
2 54859  43.0034 295.1131 0001711 261.5510  98.5138 15.02565372 71625
STARLINK-5406           
1 54860U 22177AS  24105.50593842 -.00001886  00000+0 -12450-3 0  9999
2 54860  43.0034 292.1820 0002030 259.1218 100.9396 15.02560301 71702
STARLINK-5400           
1 54861U 22177AT  24105.52257616 -.00004988  00000+0 -35437-3 0  9994
2 54861  43.0022 292.3088 0001271 279.4124  80.6575 15.02541964 71702
STARLINK-5403           
1 54862U 22177AU  24105.47942905  .00001510  00000+0  12683-3 0  9995
2 54862  43.0028 292.8577 0001416 256.7270 103.3414 15.02533819 71691
STARLINK-5405           
1 54863U 22177AV  24104.98300042  .00001267  00000+0  10886-3 0  9993
2 54863  43.0036 295.1404 0001306 273.4966  86.5727 15.02541220 71629
STARLINK-5359           
1 54864U 22177AW  24104.83783503  .00000847  00000+0  77768-4 0  9991
2 54864  43.0041 295.7700 0001353 264.5583  95.5105 15.02543476 71477
STARLINK-5411           
1 54865U 22177AX  24104.85338497 -.00000534  00000+0 -24436-4 0  9991
2 54865  43.0034 295.8886 0001199 268.8474  91.2231 15.02526553 72583
STARLINK-5398           
1 54866U 22177AY  24104.82785538  .00000318  00000+0  38586-4 0  9990
2 54866  43.0036 295.6957 0001315 264.8171  95.2521 15.02528222 72584
STARLINK-5396           
1 54867U 22177AZ  24104.84005464 -.00000175  00000+0  21285-5 0  9997
2 54867  43.0026 295.7883 0001294 268.2509  91.8185 15.02538090 71482
STARLINK-5379           
1 54868U 22177BA  24104.95636800  .00000509  00000+0  52795-4 0  9993
2 54868  43.0038 294.9377 0001543 264.8216  95.2450 15.02529879 71498
STARLINK-5402           
1 54869U 22177BB  24104.83340004  .00001724  00000+0  14267-3 0  9990
2 54869  43.0035 295.7386 0001433 281.8836  78.1845 15.02525990 72589
STARLINK-5401           
1 54870U 22177BC  24105.49040957  .00001119  00000+0  97880-4 0  9990
2 54870  43.0042 292.0641 0001411 262.4068  97.6614 15.02533443 71582
STARLINK-5397           
1 54871U 22177BD  24105.49928405  .00001927  00000+0  15769-3 0  9996
2 54871  43.0038 292.1314 0001490 262.3105  97.7568 15.02529316 71587
STARLINK-5390           
1 54872U 22177BE  24104.81786421 -.00000779  00000+0 -42564-4 0  9992
2 54872  43.0030 295.6458 0001918 254.4171 105.6460 15.02527333 72585
STARLINK-5091           
1 54873U 22177BF  24105.01951449  .00000305  00000+0  37634-4 0  9995
2 54873  43.0039 294.5519 0001467 259.3464 100.7213 15.02534668 71635
STARLINK-5277           
1 55269U 23010A   24105.11738675  .00000130  00000+0  18692-4 0  9996
2 55269  70.0009 355.8051 0002823 267.5968  92.4868 14.98335179 68438
STARLINK-5301           
1 55270U 23010B   24105.12991743 -.00002914  00000+0 -23660-3 0  9990
2 55270  70.0007 355.8506 0002939 268.8697  91.2125 14.98313903 68438
STARLINK-5306           
1 55271U 23010C   24105.12155882  .00000864  00000+0  80156-4 0  9991
2 55271  70.0007 355.8207 0002791 268.3308  91.7531 14.98336727 68432
